[{"OBJECT_NAME":"SITRO-AIS 6 (CHIRKIN)","OBJECT_ID":"2023-091AC","EPOCH":"2026-03-09T23:26:09.745152","MEAN_MOTION":15.244139,"ECCENTRICITY":0.00142211,"INCLINATION":97.5181,"RA_OF_ASC_NODE":131.6463,"ARG_OF_PERICENTER":95.0602,"MEAN_ANOMALY":265.2259,"EPHEMERIS_TYPE":0,"CLASSIFICATION_TYPE":"U","NORAD_CAT_ID":57192,"ELEMENT_SET_NO":999,"REV_AT_EPOCH":14916,"BSTAR":0.00035317072,"MEAN_MOTION_DOT":8.613e-5,"MEAN_MOTION_DDOT":0},{"OBJECT_NAME":"JAY-D1","OBJECT_ID":"2025-009BN","EPOCH":"2026-03-09T21:48:23.402016","MEAN_MOTION":15.21620147,"ECCENTRICITY":0.00044203,"INCLINATION":97.4075,"RA_OF_ASC_NODE":149.8053,"ARG_OF_PERICENTER":349.1681,"MEAN_ANOMALY":10.9459,"EPHEMERIS_TYPE":0,"CLASSIFICATION_TYPE":"U","NORAD_CAT_ID":62669,"ELEMENT_SET_NO":999,"REV_AT_EPOCH":12127,"BSTAR":0.00024428159,"MEAN_MOTION_DOT":5.448e-5,"MEAN_MOTION_DDOT":0}]
